NORAD_CAT_ID,OBJECT_NAME,OBJECT_TYPE,EPOCH,MEAN_MOTION,ECCENTRICITY,INCLINATION,RA_OF_ASC_NODE,ARG_OF_PERICENTER,MEAN_ANOMALY,BSTAR,MEAN_MOTION_DOT,MEAN_MOTION_DDOT,TLE_LINE0,TLE_LINE1,TLE_LINE2,SEMIMAJOR_AXIS,PERIOD,APOGEE,PERIGEE,DECAYED
49166.0,STARLINK-3089,PAYLOAD,2022-10-18 10:40:30,14.98329488,0.0003596,70.002,156.5058,272.4901,87.5846,0.00030681,3.5700000000000014e-05,0.0,0 STARLINK-3089,1 49166U 21082AN  22291.44479771  .00003570  00000-0  30681-3 0  9994,2 49166  70.0020 156.5058 0003596 272.4901  87.5846 14.98329488 62197,6950.194,96.107,574.559,569.56,0.0
49166.0,STARLINK-3089,PAYLOAD,2022-10-18 21:53:26,14.98330421,0.0003157,70.0023,155.3272,259.0836,100.9967,0.00012792,1.434e-05,0.0,0 STARLINK-3089,1 49166U 21082AN  22291.91211687  .00001434  00000-0  12792-3 0  9996,2 49166  70.0023 155.3272 0003157 259.0836 100.9967 14.98330421 62267,6950.191999999999,96.107,574.251,569.862,0.0
49166.0,STARLINK-3089,PAYLOAD,2022-10-19 12:18:39,14.98333545,0.0003085,70.0021,153.8124,255.7434,104.3383,0.00019807,2.271e-05,0.0,0 STARLINK-3089,1 49166U 21082AN  22292.51295617  .00002271  00000-0  19807-3 0  9992,2 49166  70.0021 153.8124 0003085 255.7434 104.3383 14.98333545 62351,6950.182,96.107,574.191,569.903,0.0
49166.0,STARLINK-3089,PAYLOAD,2022-10-19 21:55:27,14.98336077,0.0003103999999999,70.0018,152.8026,258.6168,101.4643,0.00015254,1.728e-05,0.0,0 STARLINK-3089,1 49166U 21082AN  22292.91351405  .00001728  00000-0  15254-3 0  9992,2 49166  70.0018 152.8026 0003104 258.6168 101.4643 14.98336077 62412,6950.174,96.107,574.196,569.882,0.0
49166.0,STARLINK-3089,PAYLOAD,2022-10-20 13:56:47,14.98340129,0.0003056,70.0017,151.1196,258.1198,101.9618,0.00035054,4.093e-05,0.0,0 STARLINK-3089,1 49166U 21082AN  22293.58111065  .00004093  00000-0  35054-3 0  9990,2 49166  70.0017 151.1196 0003056 258.1198 101.9618 14.98340129 62516,6950.1619999999975,96.106,574.151,569.903,0.0
49166.0,STARLINK-3089,PAYLOAD,2022-10-20 18:45:11,14.983444699999998,0.0003056,70.0017,150.6146,257.8751,102.2066,0.00041038,4.809e-05,0.0,0 STARLINK-3089,1 49166U 21082AN  22293.78138800  .00004809  00000-0  41038-3 0  9992,2 49166  70.0017 150.6146 0003056 257.8751 102.2066 14.98344470 62543,6950.148,96.106,574.137,569.889,0.0
49166.0,STARLINK-3089,PAYLOAD,2022-10-21 10:46:32,14.98335944,0.0002881999999999,70.0016,148.9317,259.2157,100.8678,7.687300000000001e-05,8.25e-06,0.0,0 STARLINK-3089,1 49166U 21082AN  22294.44898791  .00000825  00000-0  76873-4 0  9998,2 49166  70.0016 148.9317 0002882 259.2157 100.8678 14.98335944 62644,6950.175,96.107,574.043,570.036,0.0
49166.0,STARLINK-3089,PAYLOAD,2022-10-21 20:23:21,14.98332087,0.0003024,70.0002,147.9214,258.1495,101.9325,4.1948e-05,4.08e-06,0.0,0 STARLINK-3089,1 49166U 21082AN  22294.84955071  .00000408  00000-0  41948-4 0  9999,2 49166  70.0002 147.9214 0003024 258.1495 101.9325 14.98332087 62709,6950.186,96.107,574.153,569.95,0.0
49166.0,STARLINK-3089,PAYLOAD,2022-10-22 14:00:49,14.98339819,0.0003053,70.0002,146.0701,260.2862,99.7953,2.2198000000000007e-05,1.72e-06,0.0,0 STARLINK-3089,1 49166U 21082AN  22295.58390218  .00000172  00000-0  22198-4 0  9991,2 49166  70.0002 146.0701 0003053 260.2862  99.7953 14.98339819 62817,6950.163000000001,96.106,574.149,569.906,0.0
49166.0,STARLINK-3089,PAYLOAD,2022-10-22 20:25:21,14.98342343,0.0002976999999999,70.0001,145.3964,256.6904,103.3923,4.5409e-05,4.49e-06,0.0,0 STARLINK-3089,1 49166U 21082AN  22295.85093809  .00000449  00000-0  45409-4 0  9994,2 49166  70.0001 145.3964 0002977 256.6904 103.3923 14.98342343 62858,6950.155,96.106,574.089,569.951,0.0
49166.0,STARLINK-3089,PAYLOAD,2022-10-23 07:38:17,14.98341142,0.0002959,70.0002,144.2174,262.6715,97.4107,-0.0001200999999999,-1.526e-05,0.0,0 STARLINK-3089,1 49166U 21082AN  22296.31825990 -.00001526  00000-0 -12010-3 0  9990,2 49166  70.0002 144.2174 0002959 262.6715  97.4107 14.98341142 62928,6950.158,96.106,574.08,569.967,0.0
49166.0,STARLINK-3089,PAYLOAD,2022-10-23 17:15:06,14.98328123,0.0003121,70.0001,143.2084,261.403,98.6776,2.7416e-05,2.34e-06,0.0,0 STARLINK-3089,1 49166U 21082AN  22296.71882462  .00000234  00000-0  27416-4 0  9991,2 49166  70.0001 143.2084 0003121 261.4030  98.6776 14.98328123 62980,6950.199000000001,96.107,574.2330000000002,569.895,0.0
49166.0,STARLINK-3089,PAYLOAD,2022-10-23 18:51:14,14.98325991,0.0002861,70.0002,143.04,246.9285,113.1572,5.082100000000002e-05,5.13e-06,0.0,0 STARLINK-3089,1 49166U 21082AN  22296.78558522  .00000513  00000-0  50821-4 0  9991,2 49166  70.0002 143.0400 0002861 246.9285 113.1572 14.98325991 62999,6950.205,96.107,574.059,570.082,0.0
49166.0,STARLINK-3089,PAYLOAD,2022-10-24 07:40:18,14.98332043,0.0003101,70.0002,141.6934,258.9192,101.1619,3.1943e-05,2.88e-06,0.0,0 STARLINK-3089,1 49166U 21082AN  22297.31966187  .00000288  00000-0  31943-4 0  9994,2 49166  70.0002 141.6934 0003101 258.9192 101.1619 14.98332043 63078,6950.187,96.107,574.207,569.896,0.0
49166.0,STARLINK-3089,PAYLOAD,2022-10-24 17:17:08,14.98297376,0.0003021,70.0001,140.6833,257.86,102.2221,0.00031434,3.656e-05,0.0,0 STARLINK-3089,1 49166U 21082AN  22297.72023998  .00003656  00000-0  31434-3 0  9999,2 49166  70.0001 140.6833 0003021 257.8600 102.2221 14.98297376 63134,6950.294,96.109,574.258,570.059,0.0
49166.0,STARLINK-3089,PAYLOAD,2022-10-24 23:41:40,14.98319845,0.0003051,70.0005,140.0099,258.8088,101.2728,-0.0001439,-1.809e-05,0.0,0 STARLINK-3089,1 49166U 21082AN  22297.98727579 -.00001809  00000-0 -14390-3 0  9995,2 49166  70.0005 140.0099 0003051 258.8088 101.2728 14.98319845 63171,6950.224,96.108,574.21,569.969,0.0
49166.0,STARLINK-3089,PAYLOAD,2022-10-25 20:31:26,14.98315802,0.0003072,70.0,137.8224,261.44,98.6411,-3.363e-05,-4.94e-06,0.0,0 STARLINK-3089,1 49166U 21082AN  22298.85516278 -.00000494  00000-0 -33630-4 0  9992,2 49166  70.0000 137.8224 0003072 261.4400  98.6411 14.98315802 63303,6950.236999999999,96.108,574.237,569.967,0.0
49166.0,STARLINK-3089,PAYLOAD,2022-10-25 23:43:42,14.98316728,0.0003091,70.0,137.4856,260.9636,99.1174,-2.1969e-05,-3.55e-06,0.0,0 STARLINK-3089,1 49166U 21082AN  22298.98868292 -.00000355  00000-0 -21969-4 0  9990,2 49166  70.0000 137.4856 0003091 260.9636  99.1174 14.98316728 63328,6950.234,96.108,574.247,569.951,0.0
49166.0,STARLINK-3089,PAYLOAD,2022-10-26 12:32:47,14.98312383,0.0003031,70.0,136.1392,260.0999,99.9818,3.7867e-05,3.59e-06,0.0,0 STARLINK-3089,1 49166U 21082AN  22299.52276891  .00000359  00000-0  37867-4 0  9995,2 49166  70.0000 136.1392 0003031 260.0999  99.9818 14.98312383 63401,6950.246999999999,96.108,574.219,570.006,0.0
49166.0,STARLINK-3089,PAYLOAD,2022-10-26 20:33:27,14.98312929,0.0002979,70.0002,135.2977,260.636,99.4462,8.4399e-05,9.14e-06,0.0,0 STARLINK-3089,1 49166U 21082AN  22299.85657128  .00000914  00000-0  84399-4 0  9996,2 49166  70.0002 135.2977 0002979 260.6360  99.4462 14.98312929 63451,6950.246,96.108,574.181,570.04,0.0
49166.0,STARLINK-3089,PAYLOAD,2022-10-26 23:45:43,14.98314113,0.0002976,70.0002,134.961,260.5841,99.4982,9.4259e-05,1.031e-05,0.0,0 STARLINK-3089,1 49166U 21082AN  22299.99009182  .00001031  00000-0  94259-4 0  9999,2 49166  70.0002 134.9610 0002976 260.5841  99.4982 14.98314113 63477,6950.2419999999975,96.108,574.175,570.039,0.0
49166.0,STARLINK-3089,PAYLOAD,2022-10-27 20:35:29,14.98321357,0.0003128,70.0006,132.7727,262.178,97.9024,9.7494e-05,1.07e-05,0.0,0 STARLINK-3089,1 49166U 21082AN  22300.85797466  .00001070  00000-0  97494-4 0  9993,2 49166  70.0006 132.7727 0003128 262.1780  97.9024 14.98321357 63609,6950.22,96.108,574.259,569.911,0.0
49166.0,STARLINK-3089,PAYLOAD,2022-10-27 22:11:36,14.98328772,0.000295,70.0002,132.6043,264.0153,96.067,0.00017544,2.001e-05,0.0,0 STARLINK-3089,1 49166U 21082AN  22300.92472840  .00002001  00000-0  17544-3 0  9999,2 49166  70.0002 132.6043 0002950 264.0153  96.0670 14.98328772 63618,6950.196999999999,96.107,574.112,570.011,0.0
49166.0,STARLINK-3089,PAYLOAD,2022-10-28 06:12:17,14.98320177,0.000335,70.0003,131.763,259.8561,100.222,7.209399999999999e-05,7.67e-06,0.0,0 STARLINK-3089,1 49166U 21082AN  22301.25853666  .00000767  00000-0  72094-4 0  9994,2 49166  70.0003 131.7630 0003350 259.8561 100.2220 14.98320177 63666,6950.223000000001,96.108,574.4169999999998,569.76,0.0
49166.0,STARLINK-3089,PAYLOAD,2022-10-28 19:01:21,14.98334938,0.0003225,70.0001,130.4159,259.8259,100.2537,0.00018251,2.086e-05,0.0,0 STARLINK-3089,1 49166U 21082AN  22301.79260617  .00002086  00000-0  18251-3 0  9991,2 49166  70.0001 130.4159 0003225 259.8259 100.2537 14.98334938 63741,6950.178000000001,96.107,574.284,569.8009999999998,0.0
49166.0,STARLINK-3089,PAYLOAD,2022-10-28 20:37:29,14.98336076,0.0003212,70.0,130.2476,259.8806,100.199,0.00019523,2.238e-05,0.0,0 STARLINK-3089,1 49166U 21082AN  22301.85936581  .00002238  00000-0  19523-3 0  9990,2 49166  70.0000 130.2476 0003212 259.8806 100.1990 14.98336076 63752,6950.174,96.107,574.271,569.807,0.0
49166.0,STARLINK-3089,PAYLOAD,2022-10-29 07:50:25,14.98338874,0.0003238,70.0,129.0693,258.6286,101.4509,0.00020089,2.305e-05,0.0,0 STARLINK-3089,1 49166U 21082AN  22302.32668270  .00002305  00000-0  20089-3 0  9994,2 49166  70.0000 129.0693 0003238 258.6286 101.4509 14.98338874 63822,6950.165,96.106,574.281,569.78,0.0
49166.0,STARLINK-3089,PAYLOAD,2022-10-29 20:39:29,14.98350512,0.0003243999999999,70.0001,127.7226,259.7974,100.282,7.5018e-05,8.03e-06,0.0,0 STARLINK-3089,1 49166U 21082AN  22302.86075559  .00000803  00000-0  75018-4 0  9999,2 49166  70.0001 127.7226 0003244 259.7974 100.2820 14.98350512 63908,6950.129,96.106,574.249,569.74,0.0
49166.0,STARLINK-3089,PAYLOAD,2022-10-29 22:15:37,14.98351253,0.0003243,70.0001,127.5543,259.8096,100.2698,8.3526e-05,9.04e-06,0.0,0 STARLINK-3089,1 49166U 21082AN  22302.92751420  .00000904  00000-0  83526-4 0  9999,2 49166  70.0001 127.5543 0003243 259.8096 100.2698 14.98351253 63910,6950.127,96.106,574.246,569.738,0.0
